1 44023U 98046S   19282.27462770  .00000042  00000-0  68720-4 0  9990
2 44023  45.0057 257.4393 0008465 207.6553 152.3843 14.30858228 39256
1 44023U 98046S   19283.25211792 +.00000061 +00000-0 +75752-4 0  9999
2 44023 045.0057 252.8585 0008536 212.2764 147.7560 14.30858574039396
